[{"OBJECT_NAME":"STARLINK-3514","OBJECT_ID":"2022-016T","EPOCH":"2026-03-09T22:37:42.417984","MEAN_MOTION":15.08834741,"ECCENTRICITY":0.00012618,"INCLINATION":53.2187,"RA_OF_ASC_NODE":317.9838,"ARG_OF_PERICENTER":87.8677,"MEAN_ANOMALY":272.246,"EPHEMERIS_TYPE":0,"CLASSIFICATION_TYPE":"U","NORAD_CAT_ID":51731,"ELEMENT_SET_NO":999,"REV_AT_EPOCH":22360,"BSTAR":7.881138e-6,"MEAN_MOTION_DOT":-1.62e-6,"MEAN_MOTION_DDOT":0},{"OBJECT_NAME":"COSMOS 375 DEB","OBJECT_ID":"1970-091Y","EPOCH":"2026-03-09T16:59:09.666528","MEAN_MOTION":14.26288602,"ECCENTRICITY":0.0427749,"INCLINATION":62.6882,"RA_OF_ASC_NODE":210.7792,"ARG_OF_PERICENTER":160.2239,"MEAN_ANOMALY":201.5993,"EPHEMERIS_TYPE":0,"CLASSIFICATION_TYPE":"U","NORAD_CAT_ID":4727,"ELEMENT_SET_NO":999,"REV_AT_EPOCH":73963,"BSTAR":0.0022516368,"MEAN_MOTION_DOT":0.00014343,"MEAN_MOTION_DDOT":0}]
